TLE2=2 20580  28.4725 316.3669 0001497 262.8571  97.1855 15.29665795775190
TLE2=2 21423  82.4945 208.7855 0016609 196.5076 163.5600 14.81841645854872
TLE2=2 20666  62.7830 211.7315 0026817 349.9240  10.1318 15.03652084940059
TLE2=2 21397  82.5179 324.8084 0012663 290.5696  69.4172 15.04881102866908
TLE2=2 21422  82.4939  71.5815 0013106  25.3945 334.7920 15.00153253865073
TLE2=2 20663  62.7895 293.7878 0015162 193.5115 166.5582 15.05713842938166
TLE2=2 20466  82.4988 255.6037 0018351 257.6996 102.2165 14.83579800930340
TLE2=2 20775  82.9018 240.1081 0359663 332.0516  26.1781 14.89442149811156
TLE2=2 21088  82.9456 160.6998 0022289   3.7635  50.0772 13.77496035765803
TLE2=2 20625  70.9953 271.4694 0016236 283.0843  76.8467 14.15012397850171
TLE2=2 20465  82.4681  35.0728 0007707 298.2825  61.7626 15.11426258944134
TLE2=2 20511  82.5226 211.5293 0017362  54.4835 305.7996 14.82157121924418
