CCSDS_OMM_VERS = 2.0
CREATION_DATE  = 
ORIGINATOR     = 

OBJECT_NAME    = COSMOS 2058
OBJECT_ID      = 1990-010A
CENTER_NAME    = EARTH
REF_FRAME      = TEME
TIME_SYSTEM    = UTC
MEAN_ELEMENT_THEORY = SGP/SGP4

EPOCH          = 2026-03-22T05:27:27.705600
MEAN_MOTION    = 15.11426258
ECCENTRICITY   = .00077073
INCLINATION    = 82.4681
RA_OF_ASC_NODE = 35.0728
ARG_OF_PERICENTER = 298.2825
MEAN_ANOMALY   = 61.7626

EPHEMERIS_TYPE = 0
CLASSIFICATION_TYPE = U
NORAD_CAT_ID   = 20465
ELEMENT_SET_NO = 999
REV_AT_EPOCH   = 94413
BSTAR          = .30263752E-3
MEAN_MOTION_DOT = .5143E-4
MEAN_MOTION_DDOT = 0

CCSDS_OMM_VERS = 2.0
CREATION_DATE  = 
ORIGINATOR     = 

OBJECT_NAME    = SL-14 R/B
OBJECT_ID      = 1990-010B
CENTER_NAME    = EARTH
REF_FRAME      = TEME
TIME_SYSTEM    = UTC
MEAN_ELEMENT_THEORY = SGP/SGP4

EPOCH          = 2026-03-22T05:33:58.091904
MEAN_MOTION    = 14.83579800
ECCENTRICITY   = .00183519
INCLINATION    = 82.4988
RA_OF_ASC_NODE = 255.6037
ARG_OF_PERICENTER = 257.6996
MEAN_ANOMALY   = 102.2165

EPHEMERIS_TYPE = 0
CLASSIFICATION_TYPE = U
NORAD_CAT_ID   = 20466
ELEMENT_SET_NO = 999
REV_AT_EPOCH   = 93034
BSTAR          = .54479914E-4
MEAN_MOTION_DOT = .473E-5
MEAN_MOTION_DDOT = 0

CCSDS_OMM_VERS = 2.0
CREATION_DATE  = 
ORIGINATOR     = 

OBJECT_NAME    = SL-14 R/B
OBJECT_ID      = 1990-018B
CENTER_NAME    = EARTH
REF_FRAME      = TEME
TIME_SYSTEM    = UTC
MEAN_ELEMENT_THEORY = SGP/SGP4

EPOCH          = 2026-03-22T01:25:20.684352
MEAN_MOTION    = 14.82157121
ECCENTRICITY   = .00173623
INCLINATION    = 82.5226
RA_OF_ASC_NODE = 211.5293
ARG_OF_PERICENTER = 54.4835
MEAN_ANOMALY   = 305.7996

EPHEMERIS_TYPE = 0
CLASSIFICATION_TYPE = U
NORAD_CAT_ID   = 20511
ELEMENT_SET_NO = 999
REV_AT_EPOCH   = 92441
BSTAR          = .55804596E-4
MEAN_MOTION_DOT = .469E-5
MEAN_MOTION_DDOT = 0

CCSDS_OMM_VERS = 2.0
CREATION_DATE  = 
ORIGINATOR     = 

OBJECT_NAME    = HST
OBJECT_ID      = 1990-037B
CENTER_NAME    = EARTH
REF_FRAME      = TEME
TIME_SYSTEM    = UTC
MEAN_ELEMENT_THEORY = SGP/SGP4

EPOCH          = 2026-03-21T22:45:04.537152
MEAN_MOTION    = 15.29665795
ECCENTRICITY   = .00014973
INCLINATION    = 28.4725
RA_OF_ASC_NODE = 316.3669
ARG_OF_PERICENTER = 262.8571
MEAN_ANOMALY   = 97.1855

EPHEMERIS_TYPE = 0
CLASSIFICATION_TYPE = U
NORAD_CAT_ID   = 20580
ELEMENT_SET_NO = 999
REV_AT_EPOCH   = 77519
BSTAR          = .29688591E-3
MEAN_MOTION_DOT = .9017E-4
MEAN_MOTION_DDOT = 0

CCSDS_OMM_VERS = 2.0
CREATION_DATE  = 
ORIGINATOR     = 

OBJECT_NAME    = SL-16 R/B
OBJECT_ID      = 1990-046B
CENTER_NAME    = EARTH
REF_FRAME      = TEME
TIME_SYSTEM    = UTC
MEAN_ELEMENT_THEORY = SGP/SGP4

EPOCH          = 2026-03-22T06:43:41.897856
MEAN_MOTION    = 14.15012397
ECCENTRICITY   = .00162363
INCLINATION    = 70.9953
RA_OF_ASC_NODE = 271.4694
ARG_OF_PERICENTER = 283.0843
MEAN_ANOMALY   = 76.8467

EPHEMERIS_TYPE = 0
CLASSIFICATION_TYPE = U
NORAD_CAT_ID   = 20625
ELEMENT_SET_NO = 999
REV_AT_EPOCH   = 85017
BSTAR          = .84924007E-4
MEAN_MOTION_DOT = .117E-5
MEAN_MOTION_DDOT = 0

CCSDS_OMM_VERS = 2.0
CREATION_DATE  = 
ORIGINATOR     = 

OBJECT_NAME    = COSMOS 2084
OBJECT_ID      = 1990-055A
CENTER_NAME    = EARTH
REF_FRAME      = TEME
TIME_SYSTEM    = UTC
MEAN_ELEMENT_THEORY = SGP/SGP4

EPOCH          = 2026-03-21T22:36:23.730912
MEAN_MOTION    = 15.05713842
ECCENTRICITY   = .00151623
INCLINATION    = 62.7895
RA_OF_ASC_NODE = 293.7878
ARG_OF_PERICENTER = 193.5115
MEAN_ANOMALY   = 166.5582

EPHEMERIS_TYPE = 0
CLASSIFICATION_TYPE = U
NORAD_CAT_ID   = 20663
ELEMENT_SET_NO = 999
REV_AT_EPOCH   = 93816
BSTAR          = .196106E-3
MEAN_MOTION_DOT = .2654E-4
MEAN_MOTION_DDOT = 0

CCSDS_OMM_VERS = 2.0
CREATION_DATE  = 
ORIGINATOR     = 

OBJECT_NAME    = SL-6 R/B(2)
OBJECT_ID      = 1990-055D
CENTER_NAME    = EARTH
REF_FRAME      = TEME
TIME_SYSTEM    = UTC
MEAN_ELEMENT_THEORY = SGP/SGP4

EPOCH          = 2026-03-22T01:47:06.100224
MEAN_MOTION    = 15.03652084
ECCENTRICITY   = .00268172
INCLINATION    = 62.7830
RA_OF_ASC_NODE = 211.7315
ARG_OF_PERICENTER = 349.9240
MEAN_ANOMALY   = 10.1318

EPHEMERIS_TYPE = 0
CLASSIFICATION_TYPE = U
NORAD_CAT_ID   = 20666
ELEMENT_SET_NO = 999
REV_AT_EPOCH   = 94005
BSTAR          = .18781711E-3
MEAN_MOTION_DOT = .2401E-4
MEAN_MOTION_DDOT = 0

CCSDS_OMM_VERS = 2.0
CREATION_DATE  = 
ORIGINATOR     = 

OBJECT_NAME    = SL-8 R/B
OBJECT_ID      = 1990-078B
CENTER_NAME    = EARTH
REF_FRAME      = TEME
TIME_SYSTEM    = UTC
MEAN_ELEMENT_THEORY = SGP/SGP4

EPOCH          = 2026-03-22T03:20:54.987648
MEAN_MOTION    = 14.89442149
ECCENTRICITY   = .03596633
INCLINATION    = 82.9018
RA_OF_ASC_NODE = 240.1081
ARG_OF_PERICENTER = 332.0516
MEAN_ANOMALY   = 26.1781

EPHEMERIS_TYPE = 0
CLASSIFICATION_TYPE = U
NORAD_CAT_ID   = 20775
ELEMENT_SET_NO = 999
REV_AT_EPOCH   = 81115
BSTAR          = .50533579E-3
MEAN_MOTION_DOT = .17078E-3
MEAN_MOTION_DDOT = 0

CCSDS_OMM_VERS = 2.0
CREATION_DATE  = 
ORIGINATOR     = 

OBJECT_NAME    = SL-8 R/B
OBJECT_ID      = 1991-006B
CENTER_NAME    = EARTH
REF_FRAME      = TEME
TIME_SYSTEM    = UTC
MEAN_ELEMENT_THEORY = SGP/SGP4

EPOCH          = 2026-03-22T06:16:44.781888
MEAN_MOTION    = 13.77496035
ECCENTRICITY   = .00222894
INCLINATION    = 82.9456
RA_OF_ASC_NODE = 160.6998
ARG_OF_PERICENTER = 3.7635
MEAN_ANOMALY   = 50.0772

EPHEMERIS_TYPE = 0
CLASSIFICATION_TYPE = U
NORAD_CAT_ID   = 21088
ELEMENT_SET_NO = 999
REV_AT_EPOCH   = 76580
BSTAR          = .84941855E-4
MEAN_MOTION_DOT = .1E-5
MEAN_MOTION_DDOT = 0

CCSDS_OMM_VERS = 2.0
CREATION_DATE  = 
ORIGINATOR     = 

OBJECT_NAME    = OKEAN-3
OBJECT_ID      = 1991-039A
CENTER_NAME    = EARTH
REF_FRAME      = TEME
TIME_SYSTEM    = UTC
MEAN_ELEMENT_THEORY = SGP/SGP4

EPOCH          = 2026-03-22T02:43:10.685568
MEAN_MOTION    = 15.04881102
ECCENTRICITY   = .00126634
INCLINATION    = 82.5179
RA_OF_ASC_NODE = 324.8084
ARG_OF_PERICENTER = 290.5696
MEAN_ANOMALY   = 69.4172

EPHEMERIS_TYPE = 0
CLASSIFICATION_TYPE = U
NORAD_CAT_ID   = 21397
ELEMENT_SET_NO = 999
REV_AT_EPOCH   = 86690
BSTAR          = .18681413E-3
MEAN_MOTION_DOT = .2673E-4
MEAN_MOTION_DDOT = 0

CCSDS_OMM_VERS = 2.0
CREATION_DATE  = 
ORIGINATOR     = 

OBJECT_NAME    = COSMOS 2151
OBJECT_ID      = 1991-042A
CENTER_NAME    = EARTH
REF_FRAME      = TEME
TIME_SYSTEM    = UTC
MEAN_ELEMENT_THEORY = SGP/SGP4

EPOCH          = 2026-03-22T05:21:44.243136
MEAN_MOTION    = 15.00153253
ECCENTRICITY   = .00131066
INCLINATION    = 82.4939
RA_OF_ASC_NODE = 71.5815
ARG_OF_PERICENTER = 25.3945
MEAN_ANOMALY   = 334.7920

EPHEMERIS_TYPE = 0
CLASSIFICATION_TYPE = U
NORAD_CAT_ID   = 21422
ELEMENT_SET_NO = 999
REV_AT_EPOCH   = 86507
BSTAR          = .1600958E-3
MEAN_MOTION_DOT = .2028E-4
MEAN_MOTION_DDOT = 0

CCSDS_OMM_VERS = 2.0
CREATION_DATE  = 
ORIGINATOR     = 

OBJECT_NAME    = SL-14 R/B
OBJECT_ID      = 1991-042B
CENTER_NAME    = EARTH
REF_FRAME      = TEME
TIME_SYSTEM    = UTC
MEAN_ELEMENT_THEORY = SGP/SGP4

EPOCH          = 2026-03-21T20:16:32.054016
MEAN_MOTION    = 14.81841645
ECCENTRICITY   = .00166094
INCLINATION    = 82.4945
RA_OF_ASC_NODE = 208.7855
ARG_OF_PERICENTER = 196.5076
MEAN_ANOMALY   = 163.5600

EPHEMERIS_TYPE = 0
CLASSIFICATION_TYPE = U
NORAD_CAT_ID   = 21423
ELEMENT_SET_NO = 999
REV_AT_EPOCH   = 85487
BSTAR          = .58402369E-4
MEAN_MOTION_DOT = .486E-5
MEAN_MOTION_DDOT = 0

